NORAD_CAT_ID,OBJECT_NAME,OBJECT_TYPE,EPOCH,MEAN_MOTION,ECCENTRICITY,INCLINATION,RA_OF_ASC_NODE,ARG_OF_PERICENTER,MEAN_ANOMALY,BSTAR,MEAN_MOTION_DOT,MEAN_MOTION_DDOT,TLE_LINE0,TLE_LINE1,TLE_LINE2,SEMIMAJOR_AXIS,PERIOD,APOGEE,PERIGEE,DECAYED
53857.0,STARLINK-4809,PAYLOAD,2022-10-04 14:00:01,15.73163628,0.0001147999999999,53.2149,181.8562,103.5389,93.8911,0.00017364,0.0002378,0.0,0 STARLINK-4809,1 53857U 22114AR  22277.58334491  .00023780  00000-0  17364-3 0  9999,2 53857  53.2149 181.8562 0001148 103.5389  93.8911 15.73163628  1305,6727.999,91.535,350.636,349.091,0.0
53857.0,STARLINK-4809,PAYLOAD,2022-10-04 22:00:00,15.7316402,0.0001215,53.2151,180.208,105.2053,181.0618,3.4068e-05,4.157e-05,0.0,0 STARLINK-4809,1 53857U 22114AR  22277.91667824  .00004157  00000-0  34068-4 0  9993,2 53857  53.2151 180.2080 0001215 105.2053 181.0618 15.73164020  3075,6727.998000000001,91.535,350.68,349.045,0.0
53857.0,STARLINK-4809,PAYLOAD,2022-10-05 14:00:01,15.73110018,0.0001398,53.2148,176.908,110.1821,353.9096,-6.8199e-05,-0.00010142,0.0,0 STARLINK-4809,1 53857U 22114AR  22278.58335648 -.00010142  00000-0 -68199-4 0  9998,2 53857  53.2148 176.9080 0001398 110.1821 353.9096 15.73110018  3183,6728.151999999999,91.538,350.957,349.076,0.0
53857.0,STARLINK-4809,PAYLOAD,2022-10-05 22:00:00,15.73032088,0.0001379,53.2152,175.2603,105.9448,86.9031,0.0018823,0.00270279,0.0,0 STARLINK-4809,1 53857U 22114AR  22278.91667824  .00270279  00000-0  18823-2 0  9993,2 53857  53.2152 175.2603 0001379 105.9448  86.9031 15.73032088  1301,6728.374,91.543,351.167,349.311,0.0
53857.0,STARLINK-4809,PAYLOAD,2022-10-06 06:00:00,15.73265979,0.0001121,53.2151,173.6116,105.4253,176.2484,8.7603e-05,0.00011726,0.0,0 STARLINK-4809,1 53857U 22114AR  22279.25001157  .00011726  00000-0  87603-4 0  9996,2 53857  53.2151 173.6116 0001121 105.4253 176.2484 15.73265979  3286,6727.706999999999,91.529,350.326,348.8180000000001,0.0
53857.0,STARLINK-4809,PAYLOAD,2022-10-06 14:00:01,15.73198522,0.0001286,53.2173,171.963,107.025,263.8034,5.232600000000002e-05,6.729e-05,0.0,0 STARLINK-4809,1 53857U 22114AR  22279.58334491  .00006729  00000-0  52326-4 0  9993,2 53857  53.2173 171.9630 0001286 107.0250 263.8034 15.73198522  1303,6727.899,91.533,350.63,348.899,0.0
53857.0,STARLINK-4809,PAYLOAD,2022-10-06 22:42:55,15.73202483,0.0001328,53.2175,170.168,102.0077,166.5743,2.3867e-05,2.731e-05,0.0,0 STARLINK-4809,1 53857U 22114AR  22279.94646991  .00002731  00000-0  23867-4 0  9991,2 53857  53.2175 170.1680 0001328 102.0077 166.5743 15.73202483  1308,6727.888000000001,91.533,350.647,348.86,0.0
53857.0,STARLINK-4809,PAYLOAD,2022-10-07 00:00:00,15.73204032,0.0001343,53.2176,169.9032,102.4234,109.568,2.5308e-06,-2.65e-06,0.0,0 STARLINK-4809,1 53857U 22114AR  22280.00001157 -.00000265  00000-0  25308-5 0  9993,2 53857  53.2176 169.9032 0001343 102.4234 109.5680 15.73204032  3404,6727.884,91.533,350.652,348.845,0.0
53857.0,STARLINK-4809,PAYLOAD,2022-10-07 06:00:00,15.73268724,9.83e-05,53.2152,168.6624,108.9379,79.7882,-0.00025345,-0.00036141,0.0,0 STARLINK-4809,1 53857U 22114AR  22280.25001157 -.00036141  00000-0 -25345-3 0  9992,2 53857  53.2152 168.6624 0000983 108.9379  79.7882 15.73268724  3445,6727.699000000001,91.529,350.226,348.903,0.0
53857.0,STARLINK-4809,PAYLOAD,2022-10-07 14:00:01,15.73240044,0.0001341,53.2153,167.0109,118.5124,159.2156,-0.00035341,-0.0005001,0.0,0 STARLINK-4809,1 53857U 22114AR  22280.58334491 -.00050010  00000-0 -35341-3 0  9996,2 53857  53.2153 167.0109 0001341 118.5124 159.2156 15.73240044  1307,6727.781,91.531,350.548,348.744,0.0
53857.0,STARLINK-4809,PAYLOAD,2022-10-07 22:00:00,15.73190598,0.0001344,53.2153,165.3631,114.2866,252.392,-0.00015682,-0.00022561,0.0,0 STARLINK-4809,1 53857U 22114AR  22280.91667824 -.00022561  00000-0 -15682-3 0  9998,2 53857  53.2153 165.3631 0001344 114.2866 252.3920 15.73190598  3547,6727.922,91.534,350.691,348.8830000000001,0.0
53857.0,STARLINK-4809,PAYLOAD,2022-10-08 06:00:00,15.73197077,8.03e-05,53.2152,163.7136,123.5629,332.1018,-0.00010344,-0.00015108,0.0,0 STARLINK-4809,1 53857U 22114AR  22281.25001157 -.00015108  00000-0 -10344-3 0  9996,2 53857  53.2152 163.7136 0000803 123.5629 332.1018 15.73197077  3608,6727.904,91.533,350.309,349.228,0.0
53857.0,STARLINK-4809,PAYLOAD,2022-10-08 14:00:01,15.73188851,0.0001115999999999,53.2153,162.0623,127.9662,56.6223,0.00018368,0.00025223,0.0,0 STARLINK-4809,1 53857U 22114AR  22281.58334491  .00025223  00000-0  18368-3 0  9993,2 53857  53.2153 162.0623 0001116 127.9662  56.6223 15.73188851  1306,6727.927,91.534,350.543,349.041,0.0
53857.0,STARLINK-4809,PAYLOAD,2022-10-08 22:00:00,15.73240471,0.0001058,53.2153,160.4146,119.6734,153.8551,-0.00019055,-0.00027321,0.0,0 STARLINK-4809,1 53857U 22114AR  22281.91667824 -.00027321  00000-0 -19055-3 0  9996,2 53857  53.2153 160.4146 0001058 119.6734 153.8551 15.73240471  3708,6727.78,91.531,350.357,348.93300000000005,0.0
53857.0,STARLINK-4809,PAYLOAD,2022-10-09 14:00:01,15.73237125,0.0001309,53.2149,157.1137,122.9972,328.4792,-0.00032296,-0.00045771,0.0,0 STARLINK-4809,1 53857U 22114AR  22282.58334491 -.00045771  00000-0 -32296-3 0  9992,2 53857  53.2149 157.1137 0001309 122.9972 328.4792 15.73237125  3817,6727.7890000000025,91.531,350.535,348.774,0.0
53857.0,STARLINK-4809,PAYLOAD,2022-10-09 22:00:00,15.73207031,0.000129,53.2148,155.4659,114.3096,66.124,-0.00049737,-0.00069866,0.0,0 STARLINK-4809,1 53857U 22114AR  22282.91667824 -.00069866  00000-0 -49737-3 0  9997,2 53857  53.2148 155.4659 0001290 114.3096  66.1240 15.73207031  1306,6727.875,91.533,350.608,348.872,0.0
53857.0,STARLINK-4809,PAYLOAD,2022-10-10 14:00:01,15.73190315,0.0001210999999999,53.2149,152.1651,133.6019,224.6728,0.00030549,0.00042452,0.0,0 STARLINK-4809,1 53857U 22114AR  22283.58334491  .00042452  00000-0  30549-3 0  9993,2 53857  53.2149 152.1651 0001211 133.6019 224.6728 15.73190315  1303,6727.9230000000025,91.534,350.603,348.973,0.0
53857.0,STARLINK-4809,PAYLOAD,2022-10-10 22:00:01,15.73357447,0.0001173,53.2162,150.5186,120.1219,327.1365,-0.0045198,-0.00595942,0.0,0 STARLINK-4809,1 53857U 22114AR  22283.91668981 -.00595942  00000-0 -45198-2 0  9998,2 53857  53.2162 150.5186 0001173 120.1219 327.1365 15.73357447  4022,6727.446,91.524,350.1,348.522,0.0
53857.0,STARLINK-4809,PAYLOAD,2022-10-11 06:00:00,15.73220951,0.0001331999999999,53.2154,148.8688,108.8457,67.1803,-0.001111,-0.00153862,0.0,0 STARLINK-4809,1 53857U 22114AR  22284.25001157 -.00153862  00000-0 -11110-2 0  9990,2 53857  53.2154 148.8688 0001332 108.8457  67.1803 15.73220951  4076,6727.835,91.532,350.597,348.80400000000014,0.0
53857.0,STARLINK-4809,PAYLOAD,2022-10-11 14:00:01,15.730344699999998,0.0001698,53.2169,147.219,111.5509,153.373,0.0019164,0.00275383,0.0,0 STARLINK-4809,1 53857U 22114AR  22284.58334491  .00275383  00000-0  19164-2 0  9994,2 53857  53.2169 147.2190 0001698 111.5509 153.3730 15.73034470  4129,6728.3669999999975,91.543,351.375,349.09,0.0
53857.0,STARLINK-4809,PAYLOAD,2022-10-11 22:00:00,15.73197465,0.0001343,53.214,145.5692,115.1704,238.5689,-0.00025158,-0.00035774,0.0,0 STARLINK-4809,1 53857U 22114AR  22284.91667824 -.00035774  00000-0 -25158-3 0  9991,2 53857  53.2140 145.5692 0001343 115.1704 238.5689 15.73197465  1300,6727.901999999999,91.533,350.671,348.86400000000015,0.0
53857.0,STARLINK-4809,PAYLOAD,2022-10-12 14:00:01,15.73387756,0.0001242,53.2163,142.2701,120.6713,50.8478,-0.0016772,-0.00231497,0.0,0 STARLINK-4809,1 53857U 22114AR  22285.58334491 -.00231497  00000-0 -16772-2 0  9997,2 53857  53.2163 142.2701 0001242 120.6713  50.8478 15.73387756  4284,6727.36,91.522,350.06,348.389,0.0
53857.0,STARLINK-4809,PAYLOAD,2022-10-12 22:00:00,15.73204261,0.0001155,53.2175,140.6236,112.0105,148.5642,-1.7929e-06,-8.71e-06,0.0,0 STARLINK-4809,1 53857U 22114AR  22285.91667824 -.00000871  00000-0 -17929-5 0  9991,2 53857  53.2175 140.6236 0001155 112.0105 148.5642 15.73204261  4338,6727.8830000000025,91.533,350.525,348.971,0.0
53857.0,STARLINK-4809,PAYLOAD,2022-10-13 14:00:01,15.73363539,0.0001413,53.2165,137.3215,114.4077,323.9462,-0.0016410999999999,-0.00226434,0.0,0 STARLINK-4809,1 53857U 22114AR  22286.58334491 -.00226434  00000-0 -16411-2 0  9993,2 53857  53.2165 137.3215 0001413 114.4077 323.9462 15.73363539  1305,6727.429,91.524,350.245,348.343,0.0
53857.0,STARLINK-4809,PAYLOAD,2022-10-13 22:00:00,15.73204838,0.0001583,53.2174,135.675,108.0739,59.3032,-4.7660000000000015e-06,-1.289e-05,0.0,0 STARLINK-4809,1 53857U 22114AR  22286.91667824 -.00001289  00000-0 -47660-5 0  9991,2 53857  53.2174 135.6750 0001583 108.0739  59.3032 15.73204838  1301,6727.880999999999,91.533,350.811,348.681,0.0
53857.0,STARLINK-4809,PAYLOAD,2022-10-14 08:00:01,15.73247694,0.0001197,53.216,133.6102,120.6328,248.0917,-0.0019009,-0.00259851,0.0,0 STARLINK-4809,1 53857U 22114AR  22287.33335648 -.00259851  00000-0 -19009-2 0  9997,2 53857  53.2160 133.6102 0001197 120.6328 248.0917 15.73247694  4556,6727.759,91.53,350.43,348.819,0.0
53857.0,STARLINK-4809,PAYLOAD,2022-10-14 14:00:01,15.73041448,0.0001403,53.2167,132.3729,112.7893,232.5394,0.0018434,0.00264605,0.0,0 STARLINK-4809,1 53857U 22114AR  22287.58334491  .00264605  00000-0  18434-2 0  9991,2 53857  53.2167 132.3729 0001403 112.7893 232.5394 15.73041448  1309,6728.347,91.542,351.156,349.26800000000014,0.0
53857.0,STARLINK-4809,PAYLOAD,2022-10-14 16:00:00,15.7319121,0.0001465,53.2171,131.9615,114.3393,343.1464,0.00016678,0.00022841,0.0,0 STARLINK-4809,1 53857U 22114AR  22287.66667824  .00022841  00000-0  16678-3 0  9992,2 53857  53.2171 131.9615 0001465 114.3393 343.1464 15.73191210  4611,6727.92,91.534,350.771,348.8,0.0
53857.0,STARLINK-4809,PAYLOAD,2022-10-14 20:00:01,15.73203897,0.0001456,53.2173,131.1383,111.5992,210.3478,4.9787e-06,7.9e-07,0.0,0 STARLINK-4809,1 53857U 22114AR  22287.83334491  .00000079  00000-0  49787-5 0  9990,2 53857  53.2173 131.1383 0001456 111.5992 210.3478 15.73203897  1309,6727.884,91.533,350.72900000000016,348.769,0.0
